0 SL-12 DEB
1 27918U 87079AB  13279.22663628 -.00002816  00000-0 -23500-1 0  4417
2 27918 065.2021 245.5925 5475651 188.7856 301.7205 04.43952766165043
0 SL-12 DEB
1 27918U 87079AB  13285.33972219 -.00003145  00000-0 -27583-1 0  4427
2 27918 065.1676 243.3298 5470378 188.3734 351.3195 04.43909203165316
0 SL-12 DEB
1 27918U 87079AB  13288.26738885 -.00003232  00000-0 -28722-1 0  4435
2 27918 065.1533 242.2481 5467728 188.1737 349.8436 04.43885460165448
0 SL-12 DEB
1 27918U 87079AB  13291.61926274 -.00003180  00000-0 -28721-1 0  4441
2 27918 065.1431 241.0071 5465518 187.9750 306.0106 04.43863251165593
0 SL-12 DEB
1 27918U 87079AB  13292.32397488 -.00003264  00000-0 -29734-1 0  4458
2 27918 065.1409 240.7469 5464753 187.9175 352.0757 04.43856882165625
